CCSDS_OMM_VERS = 2.0
CREATION_DATE  = 
ORIGINATOR     = 

OBJECT_NAME    = STARLINK-36772
OBJECT_ID      = 2026-026A
CENTER_NAME    = EARTH
REF_FRAME      = TEME
TIME_SYSTEM    = UTC
MEAN_ELEMENT_THEORY = SGP/SGP4

EPOCH          = 2026-03-09T20:00:00.999360
MEAN_MOTION    = 15.46605854
ECCENTRICITY   = .0001272
INCLINATION    = 97.2843
RA_OF_ASC_NODE = 123.3459
ARG_OF_PERICENTER = 71.9244
MEAN_ANOMALY   = 233.5018

EPHEMERIS_TYPE = 0
CLASSIFICATION_TYPE = U
NORAD_CAT_ID   = 67721
ELEMENT_SET_NO = 999
REV_AT_EPOCH   = 533
BSTAR          = -.47262E-1
MEAN_MOTION_DOT = -.2088057E-1
MEAN_MOTION_DDOT = 0

CCSDS_OMM_VERS = 2.0
CREATION_DATE  = 
ORIGINATOR     = 

OBJECT_NAME    = STARLINK-36796
OBJECT_ID      = 2026-026B
CENTER_NAME    = EARTH
REF_FRAME      = TEME
TIME_SYSTEM    = UTC
MEAN_ELEMENT_THEORY = SGP/SGP4

EPOCH          = 2026-03-09T20:00:00.999360
MEAN_MOTION    = 15.45579239
ECCENTRICITY   = .0001624
INCLINATION    = 97.2845
RA_OF_ASC_NODE = 123.3395
ARG_OF_PERICENTER = 87.4883
MEAN_ANOMALY   = 199.4864

EPHEMERIS_TYPE = 0
CLASSIFICATION_TYPE = U
NORAD_CAT_ID   = 67722
ELEMENT_SET_NO = 999
REV_AT_EPOCH   = 533
BSTAR          = -.44813E-1
MEAN_MOTION_DOT = -.1929256E-1
MEAN_MOTION_DDOT = 0

CCSDS_OMM_VERS = 2.0
CREATION_DATE  = 
ORIGINATOR     = 

OBJECT_NAME    = STARLINK-36369
OBJECT_ID      = 2026-026C
CENTER_NAME    = EARTH
REF_FRAME      = TEME
TIME_SYSTEM    = UTC
MEAN_ELEMENT_THEORY = SGP/SGP4

EPOCH          = 2026-03-09T20:00:00.999360
MEAN_MOTION    = 15.48937510
ECCENTRICITY   = .0001773
INCLINATION    = 97.2846
RA_OF_ASC_NODE = 123.3475
ARG_OF_PERICENTER = 90.0483
MEAN_ANOMALY   = 219.1997

EPHEMERIS_TYPE = 0
CLASSIFICATION_TYPE = U
NORAD_CAT_ID   = 67723
ELEMENT_SET_NO = 999
REV_AT_EPOCH   = 533
BSTAR          = -.41722E-1
MEAN_MOTION_DOT = -.2009428E-1
MEAN_MOTION_DDOT = 0

CCSDS_OMM_VERS = 2.0
CREATION_DATE  = 
ORIGINATOR     = 

OBJECT_NAME    = STARLINK-36752
OBJECT_ID      = 2026-026D
CENTER_NAME    = EARTH
REF_FRAME      = TEME
TIME_SYSTEM    = UTC
MEAN_ELEMENT_THEORY = SGP/SGP4

EPOCH          = 2026-03-09T20:00:00.999360
MEAN_MOTION    = 15.46883205
ECCENTRICITY   = .0001596
INCLINATION    = 97.2839
RA_OF_ASC_NODE = 123.3658
ARG_OF_PERICENTER = 92.8555
MEAN_ANOMALY   = 256.6306

EPHEMERIS_TYPE = 0
CLASSIFICATION_TYPE = U
NORAD_CAT_ID   = 67724
ELEMENT_SET_NO = 999
REV_AT_EPOCH   = 533
BSTAR          = -.44102E-1
MEAN_MOTION_DOT = -.1980162E-1
MEAN_MOTION_DDOT = 0

CCSDS_OMM_VERS = 2.0
CREATION_DATE  = 
ORIGINATOR     = 

OBJECT_NAME    = STARLINK-36754
OBJECT_ID      = 2026-026E
CENTER_NAME    = EARTH
REF_FRAME      = TEME
TIME_SYSTEM    = UTC
MEAN_ELEMENT_THEORY = SGP/SGP4

EPOCH          = 2026-03-09T20:00:00.999360
MEAN_MOTION    = 15.47879996
ECCENTRICITY   = .0001906
INCLINATION    = 97.2846
RA_OF_ASC_NODE = 123.3385
ARG_OF_PERICENTER = 109.9951
MEAN_ANOMALY   = 177.2983

EPHEMERIS_TYPE = 0
CLASSIFICATION_TYPE = U
NORAD_CAT_ID   = 67725
ELEMENT_SET_NO = 999
REV_AT_EPOCH   = 533
BSTAR          = -.41612E-1
MEAN_MOTION_DOT = -.1939178E-1
MEAN_MOTION_DDOT = 0

CCSDS_OMM_VERS = 2.0
CREATION_DATE  = 
ORIGINATOR     = 

OBJECT_NAME    = STARLINK-36755
OBJECT_ID      = 2026-026F
CENTER_NAME    = EARTH
REF_FRAME      = TEME
TIME_SYSTEM    = UTC
MEAN_ELEMENT_THEORY = SGP/SGP4

EPOCH          = 2026-03-09T20:00:00.999360
MEAN_MOTION    = 15.49167123
ECCENTRICITY   = .0001453
INCLINATION    = 97.2852
RA_OF_ASC_NODE = 123.3149
ARG_OF_PERICENTER = 83.8094
MEAN_ANOMALY   = 145.8201

EPHEMERIS_TYPE = 0
CLASSIFICATION_TYPE = U
NORAD_CAT_ID   = 67726
ELEMENT_SET_NO = 999
REV_AT_EPOCH   = 533
BSTAR          = .2361E-3
MEAN_MOTION_DOT = .12762E-3
MEAN_MOTION_DDOT = 0

CCSDS_OMM_VERS = 2.0
CREATION_DATE  = 
ORIGINATOR     = 

OBJECT_NAME    = STARLINK-36741
OBJECT_ID      = 2026-026G
CENTER_NAME    = EARTH
REF_FRAME      = TEME
TIME_SYSTEM    = UTC
MEAN_ELEMENT_THEORY = SGP/SGP4

EPOCH          = 2026-03-09T20:00:00.999360
MEAN_MOTION    = 15.49612739
ECCENTRICITY   = .0001585
INCLINATION    = 97.2847
RA_OF_ASC_NODE = 123.3296
ARG_OF_PERICENTER = 82.9186
MEAN_ANOMALY   = 181.9620

EPHEMERIS_TYPE = 0
CLASSIFICATION_TYPE = U
NORAD_CAT_ID   = 67727
ELEMENT_SET_NO = 999
REV_AT_EPOCH   = 533
BSTAR          = -.32238E-1
MEAN_MOTION_DOT = -.1601671E-1
MEAN_MOTION_DDOT = 0

CCSDS_OMM_VERS = 2.0
CREATION_DATE  = 
ORIGINATOR     = 

OBJECT_NAME    = STARLINK-36757
OBJECT_ID      = 2026-026H
CENTER_NAME    = EARTH
REF_FRAME      = TEME
TIME_SYSTEM    = UTC
MEAN_ELEMENT_THEORY = SGP/SGP4

EPOCH          = 2026-03-09T20:00:00.999360
MEAN_MOTION    = 15.48136048
ECCENTRICITY   = .0001744
INCLINATION    = 97.2849
RA_OF_ASC_NODE = 123.3828
ARG_OF_PERICENTER = 76.8218
MEAN_ANOMALY   = 315.1040

EPHEMERIS_TYPE = 0
CLASSIFICATION_TYPE = U
NORAD_CAT_ID   = 67728
ELEMENT_SET_NO = 999
REV_AT_EPOCH   = 533
BSTAR          = -.45161E-1
MEAN_MOTION_DOT = -.2102982E-1
MEAN_MOTION_DDOT = 0

CCSDS_OMM_VERS = 2.0
CREATION_DATE  = 
ORIGINATOR     = 

OBJECT_NAME    = STARLINK-36751
OBJECT_ID      = 2026-026J
CENTER_NAME    = EARTH
REF_FRAME      = TEME
TIME_SYSTEM    = UTC
MEAN_ELEMENT_THEORY = SGP/SGP4

EPOCH          = 2026-03-09T20:00:00.999360
MEAN_MOTION    = 15.48173998
ECCENTRICITY   = .00018
INCLINATION    = 97.2848
RA_OF_ASC_NODE = 123.3951
ARG_OF_PERICENTER = 66.9495
MEAN_ANOMALY   = 354.4151

EPHEMERIS_TYPE = 0
CLASSIFICATION_TYPE = U
NORAD_CAT_ID   = 67729
ELEMENT_SET_NO = 999
REV_AT_EPOCH   = 533
BSTAR          = -.45771E-1
MEAN_MOTION_DOT = -.2130725E-1
MEAN_MOTION_DDOT = 0

CCSDS_OMM_VERS = 2.0
CREATION_DATE  = 
ORIGINATOR     = 

OBJECT_NAME    = STARLINK-36747
OBJECT_ID      = 2026-026K
CENTER_NAME    = EARTH
REF_FRAME      = TEME
TIME_SYSTEM    = UTC
MEAN_ELEMENT_THEORY = SGP/SGP4

EPOCH          = 2026-03-09T20:00:00.999360
MEAN_MOTION    = 15.48066190
ECCENTRICITY   = .0001684
INCLINATION    = 97.2850
RA_OF_ASC_NODE = 123.3896
ARG_OF_PERICENTER = 59.0855
MEAN_ANOMALY   = 350.9058

EPHEMERIS_TYPE = 0
CLASSIFICATION_TYPE = U
NORAD_CAT_ID   = 67730
ELEMENT_SET_NO = 999
REV_AT_EPOCH   = 533
BSTAR          = -.46618E-1
MEAN_MOTION_DOT = -.2158333E-1
MEAN_MOTION_DDOT = 0

CCSDS_OMM_VERS = 2.0
CREATION_DATE  = 
ORIGINATOR     = 

OBJECT_NAME    = STARLINK-36315
OBJECT_ID      = 2026-026L
CENTER_NAME    = EARTH
REF_FRAME      = TEME
TIME_SYSTEM    = UTC
MEAN_ELEMENT_THEORY = SGP/SGP4

EPOCH          = 2026-03-09T20:00:00.999360
MEAN_MOTION    = 15.48449947
ECCENTRICITY   = .0001352
INCLINATION    = 97.2853
RA_OF_ASC_NODE = 123.4035
ARG_OF_PERICENTER = 86.4710
MEAN_ANOMALY   = 345.4519

EPHEMERIS_TYPE = 0
CLASSIFICATION_TYPE = U
NORAD_CAT_ID   = 67731
ELEMENT_SET_NO = 999
REV_AT_EPOCH   = 533
BSTAR          = -.41457E-1
MEAN_MOTION_DOT = -.1967333E-1
MEAN_MOTION_DDOT = 0

CCSDS_OMM_VERS = 2.0
CREATION_DATE  = 
ORIGINATOR     = 

OBJECT_NAME    = STARLINK-36260
OBJECT_ID      = 2026-026M
CENTER_NAME    = EARTH
REF_FRAME      = TEME
TIME_SYSTEM    = UTC
MEAN_ELEMENT_THEORY = SGP/SGP4

EPOCH          = 2026-03-09T20:00:00.999360
MEAN_MOTION    = 15.48539702
ECCENTRICITY   = .0001642
INCLINATION    = 97.2854
RA_OF_ASC_NODE = 123.4107
ARG_OF_PERICENTER = 71.9532
MEAN_ANOMALY   = 17.0260

EPHEMERIS_TYPE = 0
CLASSIFICATION_TYPE = U
NORAD_CAT_ID   = 67732
ELEMENT_SET_NO = 999
REV_AT_EPOCH   = 533
BSTAR          = -.40881E-1
MEAN_MOTION_DOT = -.1948456E-1
MEAN_MOTION_DDOT = 0

